YAOGAN22
1 40275U 14063A   18094.45940175 -.00000044  00000-0  00000+0 0  9997
2 40275 100.4291 208.0790 0007040 128.2287 231.9460 13.15326609165939
